[{"OBJECT_NAME":"IRIDIUM 117","OBJECT_ID":"2017-039F","EPOCH":"2026-03-09T23:34:22.833408","MEAN_MOTION":14.34218658,"ECCENTRICITY":0.00018954,"INCLINATION":86.3969,"RA_OF_ASC_NODE":35.039,"ARG_OF_PERICENTER":83.8599,"MEAN_ANOMALY":276.2812,"EPHEMERIS_TYPE":0,"CLASSIFICATION_TYPE":"U","NORAD_CAT_ID":42808,"ELEMENT_SET_NO":999,"REV_AT_EPOCH":45575,"BSTAR":-9.556456e-6,"MEAN_MOTION_DOT":-7.0e-8,"MEAN_MOTION_DDOT":0},{"OBJECT_NAME":"METEOR 2-5 DEB","OBJECT_ID":"1979-095BS","EPOCH":"2026-03-07T05:51:36.256032","MEAN_MOTION":14.40468268,"ECCENTRICITY":0.0029888,"INCLINATION":81.1968,"RA_OF_ASC_NODE":239.5089,"ARG_OF_PERICENTER":323.2904,"MEAN_ANOMALY":154.1482,"EPHEMERIS_TYPE":0,"CLASSIFICATION_TYPE":"U","NORAD_CAT_ID":38272,"ELEMENT_SET_NO":999,"REV_AT_EPOCH":64624,"BSTAR":0.0032833,"MEAN_MOTION_DOT":0.00010514,"MEAN_MOTION_DDOT":0}]
